NAME,PHONE_NUMBER,ADDRESS,EMAIL_ADDRESS
Abel,631-335-3414,37275 St Rt 17,amaclead@gmail.com
Albina,732-924-7882,4 Ralph Ct,albina@glick.com
Alisha,732-658-3154,3273 State St,alisha@slusarski.com
Alishia,212-860-1579,2742 Distributi,asergi@gmail.com
Allene,715-662-6764,1 Central Ave,allene_iturbide@cox.net
Ammie,614-801-9788,74874 Atlantic,ammie@corrio.com
Art,856-636-8749,8 W Cerritos Av,art@venere.org
Bernardo,936-336-3951,386 9th Ave N,bfigeroa@aol.com
Bette,610-545-3615,6 S 33rd St,bette_nicka@cox.net
Blair,215-907-9111,209 Decker Dr,bmalet@yahoo.com
Buddhi,0723144235,danfefjls 3243 45 42,sadas@abcd.com
Cammy,956-537-6195,56 E Morehead S,calbares@gmail.com
Chanel,913-388-2079,86 Nw 66th St #,chanel.caudy@caudy.org
Donette,513-570-1893,34 Center St,donette.foller@cox.net
Dyan,913-413-4604,7219 Woodfield,doldroyd@aol.com
Emerson,608-336-7444,762 S Main St,emerson.bowley@bowley.org
Erick,907-741-1044,20 S Babcock St,erick.ferencz@aol.com
Ernie,201-709-6245,45 E Liberty St,ernie_stenseth@aol.com
Ezekiel,410-669-1642,2 Cedar Ave #84,ezekiel@chui.com
Fatima,952-768-2416,2 Lighthouse Av,fsaylors@saylors.org
Fletcher,815-828-2147,394 Manchester ,fletcher.flosi@yahoo.com
Francine,505-977-3911,366 South Dr,francine_vocelka@vocelka.com
Gladys,414-661-9598,322 New Horizon,gladys.rim@rim.org
Graciela,440-780-8425,98 Connecticut,gruta@cox.net
James,504-621-8927,6649 N Blue Gum,jbutt@gmail.com
Jina,617-399-5124,38938 Park Blvd,jina_briddick@briddick.com
Jose,212-675-8570,128 Bransten Rd,jose@yahoo.com
Josephine,810-292-9388,4 B Blue Ridge,josephine_darakjy@darakjy.org
Kanisha,323-453-2780,5 Tomahawk Dr,kanisha_waycott@yahoo.com
Kati,785-463-7829,6980 Dorsett Rd,kati.rulapaugh@hotmail.com
Kaumini,070something,bangalawaththe (lokui kyl hitahgena inne),Cow@.com
Kiley,310-498-5651,25 E 75th St #6,kiley.caldarera@aol.com
Kris,410-655-8723,228 Runamuck Pl,kris@gmail.com
Lavera,305-606-7291,678 3rd Ave,lperin@perin.org
Lenna,907-385-4412,639 Main St,lpaprocki@hotmail.com
Leota,408-752-3500,7 W Jackson Blv,leota@hotmail.com
Maryann,518-966-7987,74 S Westgate S,mroyster@royster.com
Mattie,602-277-4385,73 State Road 4,mattie@aol.com
Meaghan,931-313-9635,69734 E Carrill,meaghan@hotmail.com
Minna,215-874-1229,2371 Jerrold Av,minna_amigon@yahoo.com
Mitsue,773-573-6914,7 Eads St,mitsue_tollner@yahoo.com
Roxane,907-231-4722,1048 Main St,roxane@gmail.com
Rozella,805-832-6163,17 Morena Blvd,rozella.ostrosky@ostrosky.com
Sage,605-414-2147,5 Boston Ave #8,sage_wieser@cox.net
Simona,419-503-2484,3 Mcauley Dr,simona@morasca.com
Solange,504-979-9175,426 Wolf St,solange@shinko.com
Tharuki,076dana,dfdmsoaf warapitiya,shinky@buddhi.com
Thimira,714954066,ABCD 118,thimiH@gmail.com
Valentine,210-812-9597,775 W 17th St,valentine_gillian@gmail.com
Veronika,408-540-1785,6 Greenleaf Ave,vinouye@aol.com
Willard,972-303-9197,618 W Yakima Av,willard@hotmail.com
Willow,212-582-4976,90991 Thorburn,wkusko@yahoo.com
Youlanda,541-548-8197,2881 Lewis Rd,youlanda@aol.com
Yuki,313-288-7937,1 State Route 2,yuki_whobrey@aol.com
